ORBCOMM FM06            
1 25118U 97084G   26180.92869325  .00001332  00000+0  39740-3 0  9990
2 25118  45.0146 351.3732 0000165 160.9035 358.3636 14.47594290496232
ORBCOMM FM04            
1 25159U 98007C   26180.93567759  .00000811  00000+0  32286-3 0  9997
2 25159 107.9626 195.6579 0041687 302.9031  56.8102 14.35763186478422
ORBCOMM FM19            
1 25415U 98046C   26180.98236556  .00000792  00000+0  29693-3 0  9994
2 25415  44.9921 182.7397 0004169 336.1347  44.8243 14.39515396458628
ORBCOMM FM20            
1 25416U 98046D   26180.72597511  .00000467  00000+0  19916-3 0  9994
2 25416  44.9921 192.0197 0002421 292.2978  67.7614 14.38080155458593
ORBCOMM FM27            
1 25481U 98053G   26181.65459597  .00000774  00000+0  29317-3 0  9995
2 25481  45.0052 271.3878 0002080 241.8401 118.2238 14.39165267452172
ORBCOMM FM32            
1 25982U 99065C   26181.84592961  .00000733  00000+0  29174-3 0  9995
2 25982  45.0146 108.5861 0004424 116.1020 244.0283 14.37149126389058
ORBCOMM FM109           
1 40086U 14040A   26180.97390598  .00000509  00000+0  14380-3 0  9996
2 40086  47.0046  31.0324 0001944 280.8047  79.2620 14.58859530636213
ORBCOMM FM110           
1 41182U 15081D   26181.73251918  .00000678  00000+0  17948-3 0  9997
2 41182  47.0026 297.3967 0002808 155.4538 204.6482 14.58900709559603
ORBCOMM FM118           
1 41183U 15081E   26181.69833854  .00000426  00000+0  12638-3 0  9990
2 41183  47.0048 297.8923 0002290 107.8080 252.3056 14.58892076559708
ORBCOMM FM112           
1 41184U 15081F   26181.49718880  .00000347  00000+0  10947-3 0  9993
2 41184  46.9971 207.3067 0004130 269.8419  90.1993 14.58917672560897
ORBCOMM FM113           
1 41185U 15081G   26181.47424975  .00000280  00000+0  95535-4 0  9994
2 41185  46.9989 207.7982 0002628 270.1275  89.9309 14.58869516560870
ORBCOMM FM108           
1 41187U 15081J   26181.84741025  .00000608  00000+0  16480-3 0  9990
2 41187  47.0045 117.6107 0003190 271.5004  88.5516 14.58890855562074
ORBCOMM FM117           
1 41188U 15081K   26181.81302233  .00000460  00000+0  13355-3 0  9996
2 41188  47.0006 116.4035 0003686 275.6842  84.3624 14.58877515562111
ORBCOMM FM116           
1 41189U 15081L   26181.51934267  .00000314  00000+0  10265-3 0  9997
2 41189  47.0006 207.5827 0000898 181.1835 178.9049 14.58896557560888
